NORAD_CAT_ID,OBJECT_NAME,OBJECT_TYPE,EPOCH,MEAN_MOTION,ECCENTRICITY,INCLINATION,RA_OF_ASC_NODE,ARG_OF_PERICENTER,MEAN_ANOMALY,BSTAR,MEAN_MOTION_DOT,MEAN_MOTION_DDOT,TLE_LINE0,TLE_LINE1,TLE_LINE2,SEMIMAJOR_AXIS,PERIOD,APOGEE,PERIGEE,DECAYED
51112.0,STARLINK-3374,PAYLOAD,2022-05-16 14:00:01,15.13874347,0.0001764999999999,53.2174,63.0379,45.5413,168.2911,-0.037701,-0.00647373,0.0,0 STARLINK-3374,1 51112U 22005J   22136.58334491 -.00647373  00000-0 -37701-1 0  9991,2 51112  53.2174  63.0379 0001765  45.5413 168.2911 15.13874347  1308,6902.535,95.12,525.618,523.182,0.0
51112.0,STARLINK-3374,PAYLOAD,2022-05-16 22:00:00,15.13419303,0.0001865,53.2176,61.5347,43.345,187.8534,-0.038283,-0.00648887,0.0,0 STARLINK-3374,1 51112U 22005J   22136.91667824 -.00648887  00000-0 -38283-1 0  9994,2 51112  53.2176  61.5347 0001865  43.3450 187.8534 15.13419303 19737,6903.919,95.149,527.071,524.496,0.0
51112.0,STARLINK-3374,PAYLOAD,2022-05-17 14:00:01,15.12506786,0.0001751999999999,53.2176,58.5295,43.3693,220.9832,-0.039136,-0.00646669,0.0,0 STARLINK-3374,1 51112U 22005J   22137.58335648 -.00646669  00000-0 -39136-1 0  9998,2 51112  53.2176  58.5295 0001752  43.3693 220.9832 15.12506786  1304,6906.695,95.206,529.77,527.35,0.0
51112.0,STARLINK-3374,PAYLOAD,2022-05-17 22:00:01,15.12052202,0.0001864,53.2177,57.0297,40.6616,239.4138,-0.039778,-0.00648827,0.0,0 STARLINK-3374,1 51112U 22005J   22137.91668981 -.00648827  00000-0 -39778-1 0  9994,2 51112  53.2177  57.0297 0001864  40.6616 239.4138 15.12052202  1303,6908.079000000002,95.235,531.232,528.6569999999998,0.0
51112.0,STARLINK-3374,PAYLOAD,2022-05-18 06:00:00,15.11594861,0.0001631,53.2174,55.5312,48.8662,246.322,-0.04007,-0.00645483,0.0,0 STARLINK-3374,1 51112U 22005J   22138.25001157 -.00645483  00000-0 -40070-1 0  9990,2 51112  53.2174  55.5312 0001631  48.8662 246.3220 15.11594861 19932,6909.473000000001,95.264,532.465,530.211,0.0
51112.0,STARLINK-3374,PAYLOAD,2022-05-18 14:00:01,15.11138992,0.0001639,53.2176,54.0309,45.4087,264.4095,-0.0406,-0.00645743,0.0,0 STARLINK-3374,1 51112U 22005J   22138.58334491 -.00645743  00000-0 -40600-1 0  9994,2 51112  53.2176  54.0309 0001639  45.4087 264.4095 15.11138992  1308,6910.861999999999,95.292,533.86,531.595,0.0
51112.0,STARLINK-3374,PAYLOAD,2022-05-18 22:00:00,15.10685299,0.000178,53.2177,52.5344,40.6596,283.2383,-0.041346,-0.00649151,0.0,0 STARLINK-3374,1 51112U 22005J   22138.91667824 -.00649151  00000-0 -41346-1 0  9995,2 51112  53.2177  52.5344 0001780  40.6596 283.2383 15.10685299  1305,6912.246,95.321,535.341,532.88,0.0
51112.0,STARLINK-3374,PAYLOAD,2022-05-19 06:00:00,15.10228873,0.0001583,53.2173,51.0388,47.1815,290.2492,-0.041755,-0.00647417,0.0,0 STARLINK-3374,1 51112U 22005J   22139.25001157 -.00647417  00000-0 -41755-1 0  9991,2 51112  53.2173  51.0388 0001583  47.1815 290.2492 15.10228873 20086,6913.638000000001,95.35,536.5980000000002,534.409,0.0
51112.0,STARLINK-3374,PAYLOAD,2022-05-19 14:00:01,15.09771335,0.0001541,53.2175,49.5415,47.062,303.4196,-0.042124,-0.00645068,0.0,0 STARLINK-3374,1 51112U 22005J   22139.58335648 -.00645068  00000-0 -42124-1 0  9993,2 51112  53.2175  49.5415 0001541  47.0620 303.4196 15.09771335  1304,6915.035,95.379,537.966,535.835,0.0
51112.0,STARLINK-3374,PAYLOAD,2022-05-19 22:00:00,15.09275879,0.0001771,53.2177,48.047,42.1217,320.7429,-0.0356579999999999,-0.00539232,0.0,0 STARLINK-3374,1 51112U 22005J   22139.91667824 -.00539232  00000-0 -35658-1 0  9993,2 51112  53.2177  48.0470 0001771  42.1217 320.7429 15.09275879  1307,6916.5480000000025,95.41,539.638,537.188,0.0
51112.0,STARLINK-3374,PAYLOAD,2022-05-20 06:00:00,15.08837957,0.000181,53.2173,46.5518,40.1685,334.5812,-7.2367e-05,-1.44e-05,0.0,0 STARLINK-3374,1 51112U 22005J   22140.25001157 -.00001440  00000-0 -72367-4 0  9999,2 51112  53.2173  46.5518 0001810  40.1685 334.5812 15.08837957 20232,6917.887,95.438,541.004,538.499,0.0
51112.0,STARLINK-3374,PAYLOAD,2022-05-20 14:00:01,15.08836481,0.000169,53.2177,45.053,46.5754,339.7685,7.9027e-05,9.7e-06,0.0,0 STARLINK-3374,1 51112U 22005J   22140.58334491  .00000970  00000-0  79027-4 0  9990,2 51112  53.2177  45.0530 0001690  46.5754 339.7685 15.08836481  1300,6917.891,95.438,540.925,538.587,0.0
51112.0,STARLINK-3374,PAYLOAD,2022-05-20 22:00:00,15.08838005,0.0001723,53.2176,43.5586,45.5392,352.3953,-0.00011011,-2.04e-05,0.0,0 STARLINK-3374,1 51112U 22005J   22140.91667824 -.00002040  00000-0 -11011-3 0  9996,2 51112  53.2176  43.5586 0001723  45.5392 352.3953 15.08838005  1300,6917.886,95.438,540.943,538.56,0.0
51112.0,STARLINK-3374,PAYLOAD,2022-05-21 06:00:00,15.08861266,0.0001774999999999,53.2181,42.054,39.5262,10.0569,-0.002247,-0.00035892,0.0,0 STARLINK-3374,1 51112U 22005J   22141.25001157 -.00035892  00000-0 -22470-2 0  9996,2 51112  53.2181  42.0540 0001775  39.5262  10.0569 15.08861266 20381,6917.815,95.436,540.908,538.452,0.0
51112.0,STARLINK-3374,PAYLOAD,2022-05-21 14:00:01,15.08785957,0.000165,53.2181,40.5558,48.6841,12.5838,0.0044454,0.00071069,0.0,0 STARLINK-3374,1 51112U 22005J   22141.58335648  .00071069  00000-0  44454-2 0  9997,2 51112  53.2181  40.5558 0001650  48.6841  12.5838 15.08785957  1308,6918.045999999999,95.441,541.052,538.769,0.0
51112.0,STARLINK-3374,PAYLOAD,2022-05-21 20:00:01,15.08840874,0.0001771,53.2185,39.4344,48.9107,290.9474,0.00074241,0.00011547,0.0,0 STARLINK-3374,1 51112U 22005J   22141.83334491  .00011547  00000-0  74241-3 0  9993,2 51112  53.2185  39.4344 0001771  48.9107 290.9474 15.08840874 20471,6917.878000000002,95.437,540.9680000000002,538.518,0.0
51112.0,STARLINK-3374,PAYLOAD,2022-05-21 22:00:00,15.08852153,0.0001823,53.2183,39.0609,46.8012,25.95300000000001,-0.00051316,-8.449e-05,0.0,0 STARLINK-3374,1 51112U 22005J   22141.91667824 -.00008449  00000-0 -51316-3 0  9998,2 51112  53.2183  39.0609 0001823  46.8012  25.9530 15.08852153  1302,6917.843000000003,95.437,540.969,538.447,0.0
51112.0,STARLINK-3374,PAYLOAD,2022-05-22 14:00:01,15.08817662,0.000171,53.2183,36.0666,47.9033,48.082,0.002186,0.00034652,0.0,0 STARLINK-3374,1 51112U 22005J   22142.58334491  .00034652  00000-0  21860-2 0  9996,2 51112  53.2183  36.0666 0001710  47.9033  48.0820 15.08817662  1306,6917.949000000001,95.439,540.997,538.631,0.0
51112.0,STARLINK-3374,PAYLOAD,2022-05-22 22:00:01,15.08850121,0.0001903,53.2186,34.5716,46.9866,60.6468,-0.00024102,-4.123e-05,0.0,0 STARLINK-3374,1 51112U 22005J   22142.91668981 -.00004123  00000-0 -24102-3 0  9992,2 51112  53.2186  34.5716 0001903  46.9866  60.6468 15.08850121 20648,6917.849,95.437,541.031,538.398,0.0
51112.0,STARLINK-3374,PAYLOAD,2022-05-23 14:00:01,15.08837037,0.0001715,53.2189,31.5774,46.2514,84.5471,0.00035627,5.386e-05,0.0,0 STARLINK-3374,1 51112U 22005J   22143.58334491  .00005386  00000-0  35627-3 0  9996,2 51112  53.2189  31.5774 0001715  46.2514  84.5471 15.08837037  1308,6917.889,95.438,540.941,538.568,0.0
51112.0,STARLINK-3374,PAYLOAD,2022-05-23 22:00:01,15.08835195,0.000188,53.2192,30.0826,44.3301,98.1265,-0.0018736,-0.00029979,0.0,0 STARLINK-3374,1 51112U 22005J   22143.91668981 -.00029979  00000-0 -18736-2 0  9994,2 51112  53.2192  30.0826 0001880  44.3301  98.1265 15.08835195  1305,6917.895,95.438,541.061,538.46,0.0
51112.0,STARLINK-3374,PAYLOAD,2022-05-24 06:00:02,15.08824953,0.0001955,53.2191,28.5864,42.6621,111.3579,0.00058541,9.037e-05,0.0,0 STARLINK-3374,1 51112U 22005J   22144.25002315  .00009037  00000-0  58541-3 0  9995,2 51112  53.2191  28.5864 0001955  42.6621 111.3579 15.08824953 20843,6917.926,95.439,541.144,538.439,0.0
51112.0,STARLINK-3374,PAYLOAD,2022-05-24 14:00:01,15.08824531,0.0001837,53.2195,27.0886,49.5233,116.0134,0.00080115,0.0001248,0.0,0 STARLINK-3374,1 51112U 22005J   22144.58334491  .00012480  00000-0  80115-3 0  9992,2 51112  53.2195  27.0886 0001837  49.5233 116.0134 15.08824531  1300,6917.928000000001,95.439,541.063,538.5219999999998,0.0
51112.0,STARLINK-3374,PAYLOAD,2022-05-24 22:00:00,15.08826867,0.000204,53.2197,25.5939,48.0899,129.0378,-6.7661e-05,-1.364e-05,0.0,0 STARLINK-3374,1 51112U 22005J   22144.91667824 -.00001364  00000-0 -67661-4 0  9991,2 51112  53.2197  25.5939 0002040  48.0899 129.0378 15.08826867  1301,6917.920999999999,95.438,541.197,538.374,0.0
51112.0,STARLINK-3374,PAYLOAD,2022-05-25 12:00:00,15.08826875,0.0001869,53.2199,22.9742,50.3789,57.0278,0.0023426,0.00037178,0.0,0 STARLINK-3374,1 51112U 22005J   22145.50001157  .00037178  00000-0  23426-2 0  9997,2 51112  53.2199  22.9742 0001869  50.3789  57.0278 15.08826875 21038,6917.920999999999,95.438,541.078,538.493,0.0
51112.0,STARLINK-3374,PAYLOAD,2022-05-25 14:00:01,15.08840504,0.0001864,53.2198,22.5999,52.0238,148.2777,0.0009319,0.00014574,0.0,0 STARLINK-3374,1 51112U 22005J   22145.58334491  .00014574  00000-0  93190-3 0  9996,2 51112  53.2198  22.5999 0001864  52.0238 148.2777 15.08840504  1300,6917.879,95.438,541.033,538.4540000000002,0.0
51112.0,STARLINK-3374,PAYLOAD,2022-05-25 21:03:53,15.08844858,0.0002448,53.2203,21.2801,38.7899,321.3269,5.417300000000001e-05,5.74e-06,0.0,0 STARLINK-3374,1 51112U 22005J   22145.87770529  .00000574  00000-0  54173-4 0  9998,2 51112  53.2203  21.2801 0002448  38.7899 321.3269 15.08844858 19976,6917.866,95.437,541.424,538.0369999999998,0.0
51112.0,STARLINK-3374,PAYLOAD,2022-05-26 06:00:00,15.08875169,0.0001895,53.2195,19.6088,45.1354,178.37,-0.0029778,-0.00047414,0.0,0 STARLINK-3374,1 51112U 22005J   22146.25001157 -.00047414  00000-0 -29778-2 0  9992,2 51112  53.2195  19.6088 0001895  45.1354 178.3700 15.08875169 21148,6917.773,95.435,540.9490000000002,538.327,0.0
51112.0,STARLINK-3374,PAYLOAD,2022-05-26 08:11:35,15.0883806,0.0001937,53.2201,19.1995,53.9589,306.1582,9.2771e-05,1.189e-05,0.0,0 STARLINK-3374,1 51112U 22005J   22146.34138818  .00001189  00000-0  92771-4 0  9999,2 51112  53.2201  19.1995 0001937  53.9589 306.1582 15.08838060 20048,6917.886,95.438,541.091,538.411,0.0
